DELTA 1 R/B             
1 20323U 89089B   25305.52686542  .00000448  00000+0  11976-3 0  9999
2 20323  97.0797 168.2883 0069490 166.3765 193.9330 14.50519895877152
ARIANE 40 R/B           
1 20443U 90005H   25305.59777578  .00000411  00000+0  14471-3 0  9992
2 20443  98.3301   4.9275 0009322 225.2113 134.8318 14.39749584874379
DELTA 2 R/B(1)          
1 20453U 90008B   25305.21870992  .00035483  00000+0  63579-3 0  9999
2 20453  35.6068 287.8762 0118399 161.1315 199.3856 15.41437704906218
COSMOS 2058             
1 20465U 90010A   25305.61224575  .00003731  00000+0  22759-3 0  9995
2 20465  82.4694 173.4844 0011524  54.9950 305.2359 15.10011177922901
SL-14 R/B               
1 20466U 90010B   25305.32972583  .00000630  00000+0  73616-4 0  9997
2 20466  82.5053  27.9300 0019961   7.3886 352.7619 14.83413636909451
SL-14 R/B               
1 20511U 90018B   25305.56167052  .00000549  00000+0  66166-4 0  9990
2 20511  82.5219 342.8560 0017218 149.3291 210.8934 14.81988485903605
HST                     
1 20580U 90037B   25305.37367370  .00008514  00000+0  30155-3 0  9999
2 20580  28.4669 193.8827 0001953 126.3947 233.6828 15.27262832753667
SL-16 R/B               
1 20625U 90046B   25305.46132411 -.00000031  00000+0  88186-5 0  9991
2 20625  70.9998 207.2079 0012695 147.2875 212.9036 14.14992353830255
COSMOS 2084             
1 20663U 90055A   25305.56802805  .00004254  00000+0  31059-3 0  9990
2 20663  62.7913  52.2397 0038630 169.8548 190.3341 15.04639126917034
SL-6 R/B(2)             
1 20666U 90055D   25305.44924434  .00002713  00000+0  21621-3 0  9995
2 20666  62.7846 329.6830 0010658 271.5719  88.4159 15.02768146918911
SL-8 R/B                
1 20775U 90078B   25305.62314489  .00014528  00000+0  44845-3 0  9994
2 20775  82.9088   6.0360 0383135  83.2674 281.1979 14.83829605790274
SL-8 R/B                
1 21088U 91006B   25305.66075331  .00000154  00000+0  13891-3 0  9995
2 21088  82.9398 265.2713 0023434  36.7667 135.9463 13.77480727746449
