CCSDS_OMM_VERS = 2.0
CREATION_DATE  = 
ORIGINATOR     = 

OBJECT_NAME    = DELTA 1 R/B
OBJECT_ID      = 1989-089B
CENTER_NAME    = EARTH
REF_FRAME      = TEME
TIME_SYSTEM    = UTC
MEAN_ELEMENT_THEORY = SGP/SGP4

EPOCH          = 2025-11-01T12:38:41.172288
MEAN_MOTION    = 14.50519895
ECCENTRICITY   = .006949
INCLINATION    = 97.0797
RA_OF_ASC_NODE = 168.2883
ARG_OF_PERICENTER = 166.3765
MEAN_ANOMALY   = 193.9330

EPHEMERIS_TYPE = 0
CLASSIFICATION_TYPE = U
NORAD_CAT_ID   = 20323
ELEMENT_SET_NO = 999
REV_AT_EPOCH   = 87715
BSTAR          = .11976021E-3
MEAN_MOTION_DOT = .448E-5
MEAN_MOTION_DDOT = 0

CCSDS_OMM_VERS = 2.0
CREATION_DATE  = 
ORIGINATOR     = 

OBJECT_NAME    = ARIANE 40 R/B
OBJECT_ID      = 1990-005H
CENTER_NAME    = EARTH
REF_FRAME      = TEME
TIME_SYSTEM    = UTC
MEAN_ELEMENT_THEORY = SGP/SGP4

EPOCH          = 2025-11-01T14:20:47.827392
MEAN_MOTION    = 14.39749584
ECCENTRICITY   = .00093223
INCLINATION    = 98.3301
RA_OF_ASC_NODE = 4.9275
ARG_OF_PERICENTER = 225.2113
MEAN_ANOMALY   = 134.8318

EPHEMERIS_TYPE = 0
CLASSIFICATION_TYPE = U
NORAD_CAT_ID   = 20443
ELEMENT_SET_NO = 999
REV_AT_EPOCH   = 87437
BSTAR          = .14471227E-3
MEAN_MOTION_DOT = .411E-5
MEAN_MOTION_DDOT = 0

CCSDS_OMM_VERS = 2.0
CREATION_DATE  = 
ORIGINATOR     = 

OBJECT_NAME    = DELTA 2 R/B(1)
OBJECT_ID      = 1990-008B
CENTER_NAME    = EARTH
REF_FRAME      = TEME
TIME_SYSTEM    = UTC
MEAN_ELEMENT_THEORY = SGP/SGP4

EPOCH          = 2025-11-01T05:14:56.537088
MEAN_MOTION    = 15.41437704
ECCENTRICITY   = .01183992
INCLINATION    = 35.6068
RA_OF_ASC_NODE = 287.8762
ARG_OF_PERICENTER = 161.1315
MEAN_ANOMALY   = 199.3856

EPHEMERIS_TYPE = 0
CLASSIFICATION_TYPE = U
NORAD_CAT_ID   = 20453
ELEMENT_SET_NO = 999
REV_AT_EPOCH   = 90621
BSTAR          = .63578873E-3
MEAN_MOTION_DOT = .35483E-3
MEAN_MOTION_DDOT = 0

CCSDS_OMM_VERS = 2.0
CREATION_DATE  = 
ORIGINATOR     = 

OBJECT_NAME    = COSMOS 2058
OBJECT_ID      = 1990-010A
CENTER_NAME    = EARTH
REF_FRAME      = TEME
TIME_SYSTEM    = UTC
MEAN_ELEMENT_THEORY = SGP/SGP4

EPOCH          = 2025-11-01T14:41:38.032800
MEAN_MOTION    = 15.10011177
ECCENTRICITY   = .00115241
INCLINATION    = 82.4694
RA_OF_ASC_NODE = 173.4844
ARG_OF_PERICENTER = 54.9950
MEAN_ANOMALY   = 305.2359

EPHEMERIS_TYPE = 0
CLASSIFICATION_TYPE = U
NORAD_CAT_ID   = 20465
ELEMENT_SET_NO = 999
REV_AT_EPOCH   = 92290
BSTAR          = .22759172E-3
MEAN_MOTION_DOT = .3731E-4
MEAN_MOTION_DDOT = 0

CCSDS_OMM_VERS = 2.0
CREATION_DATE  = 
ORIGINATOR     = 

OBJECT_NAME    = SL-14 R/B
OBJECT_ID      = 1990-010B
CENTER_NAME    = EARTH
REF_FRAME      = TEME
TIME_SYSTEM    = UTC
MEAN_ELEMENT_THEORY = SGP/SGP4

EPOCH          = 2025-11-01T07:54:48.311712
MEAN_MOTION    = 14.83413636
ECCENTRICITY   = .00199616
INCLINATION    = 82.5053
RA_OF_ASC_NODE = 27.9300
ARG_OF_PERICENTER = 7.3886
MEAN_ANOMALY   = 352.7619

EPHEMERIS_TYPE = 0
CLASSIFICATION_TYPE = U
NORAD_CAT_ID   = 20466
ELEMENT_SET_NO = 999
REV_AT_EPOCH   = 90945
BSTAR          = .73615551E-4
MEAN_MOTION_DOT = .63E-5
MEAN_MOTION_DDOT = 0

CCSDS_OMM_VERS = 2.0
CREATION_DATE  = 
ORIGINATOR     = 

OBJECT_NAME    = SL-14 R/B
OBJECT_ID      = 1990-018B
CENTER_NAME    = EARTH
REF_FRAME      = TEME
TIME_SYSTEM    = UTC
MEAN_ELEMENT_THEORY = SGP/SGP4

EPOCH          = 2025-11-01T13:28:48.332928
MEAN_MOTION    = 14.81988485
ECCENTRICITY   = .00172187
INCLINATION    = 82.5219
RA_OF_ASC_NODE = 342.8560
ARG_OF_PERICENTER = 149.3291
MEAN_ANOMALY   = 210.8934

EPHEMERIS_TYPE = 0
CLASSIFICATION_TYPE = U
NORAD_CAT_ID   = 20511
ELEMENT_SET_NO = 999
REV_AT_EPOCH   = 90360
BSTAR          = .6616594E-4
MEAN_MOTION_DOT = .549E-5
MEAN_MOTION_DDOT = 0

CCSDS_OMM_VERS = 2.0
CREATION_DATE  = 
ORIGINATOR     = 

OBJECT_NAME    = HST
OBJECT_ID      = 1990-037B
CENTER_NAME    = EARTH
REF_FRAME      = TEME
TIME_SYSTEM    = UTC
MEAN_ELEMENT_THEORY = SGP/SGP4

EPOCH          = 2025-11-01T08:58:05.407680
MEAN_MOTION    = 15.27262832
ECCENTRICITY   = .00019533
INCLINATION    = 28.4669
RA_OF_ASC_NODE = 193.8827
ARG_OF_PERICENTER = 126.3947
MEAN_ANOMALY   = 233.6828

EPHEMERIS_TYPE = 0
CLASSIFICATION_TYPE = U
NORAD_CAT_ID   = 20580
ELEMENT_SET_NO = 999
REV_AT_EPOCH   = 75366
BSTAR          = .30155313E-3
MEAN_MOTION_DOT = .8514E-4
MEAN_MOTION_DDOT = 0

CCSDS_OMM_VERS = 2.0
CREATION_DATE  = 
ORIGINATOR     = 

OBJECT_NAME    = SL-16 R/B
OBJECT_ID      = 1990-046B
CENTER_NAME    = EARTH
REF_FRAME      = TEME
TIME_SYSTEM    = UTC
MEAN_ELEMENT_THEORY = SGP/SGP4

EPOCH          = 2025-11-01T11:04:18.403104
MEAN_MOTION    = 14.14992353
ECCENTRICITY   = .00126957
INCLINATION    = 70.9998
RA_OF_ASC_NODE = 207.2079
ARG_OF_PERICENTER = 147.2875
MEAN_ANOMALY   = 212.9036

EPHEMERIS_TYPE = 0
CLASSIFICATION_TYPE = U
NORAD_CAT_ID   = 20625
ELEMENT_SET_NO = 999
REV_AT_EPOCH   = 83025
BSTAR          = .8818623E-5
MEAN_MOTION_DOT = -.31E-6
MEAN_MOTION_DDOT = 0

CCSDS_OMM_VERS = 2.0
CREATION_DATE  = 
ORIGINATOR     = 

OBJECT_NAME    = COSMOS 2084
OBJECT_ID      = 1990-055A
CENTER_NAME    = EARTH
REF_FRAME      = TEME
TIME_SYSTEM    = UTC
MEAN_ELEMENT_THEORY = SGP/SGP4

EPOCH          = 2025-11-01T13:37:57.623520
MEAN_MOTION    = 15.04639126
ECCENTRICITY   = .00386309
INCLINATION    = 62.7913
RA_OF_ASC_NODE = 52.2397
ARG_OF_PERICENTER = 169.8548
MEAN_ANOMALY   = 190.3341

EPHEMERIS_TYPE = 0
CLASSIFICATION_TYPE = U
NORAD_CAT_ID   = 20663
ELEMENT_SET_NO = 999
REV_AT_EPOCH   = 91703
BSTAR          = .31059331E-3
MEAN_MOTION_DOT = .4254E-4
MEAN_MOTION_DDOT = 0

CCSDS_OMM_VERS = 2.0
CREATION_DATE  = 
ORIGINATOR     = 

OBJECT_NAME    = SL-6 R/B(2)
OBJECT_ID      = 1990-055D
CENTER_NAME    = EARTH
REF_FRAME      = TEME
TIME_SYSTEM    = UTC
MEAN_ELEMENT_THEORY = SGP/SGP4

EPOCH          = 2025-11-01T10:46:54.710976
MEAN_MOTION    = 15.02768146
ECCENTRICITY   = .00106581
INCLINATION    = 62.7846
RA_OF_ASC_NODE = 329.6830
ARG_OF_PERICENTER = 271.5719
MEAN_ANOMALY   = 88.4159

EPHEMERIS_TYPE = 0
CLASSIFICATION_TYPE = U
NORAD_CAT_ID   = 20666
ELEMENT_SET_NO = 999
REV_AT_EPOCH   = 91891
BSTAR          = .21620861E-3
MEAN_MOTION_DOT = .2713E-4
MEAN_MOTION_DDOT = 0

CCSDS_OMM_VERS = 2.0
CREATION_DATE  = 
ORIGINATOR     = 

OBJECT_NAME    = SL-8 R/B
OBJECT_ID      = 1990-078B
CENTER_NAME    = EARTH
REF_FRAME      = TEME
TIME_SYSTEM    = UTC
MEAN_ELEMENT_THEORY = SGP/SGP4

EPOCH          = 2025-11-01T14:57:19.718496
MEAN_MOTION    = 14.83829605
ECCENTRICITY   = .03831351
INCLINATION    = 82.9088
RA_OF_ASC_NODE = 6.0360
ARG_OF_PERICENTER = 83.2674
MEAN_ANOMALY   = 281.1979

EPHEMERIS_TYPE = 0
CLASSIFICATION_TYPE = U
NORAD_CAT_ID   = 20775
ELEMENT_SET_NO = 999
REV_AT_EPOCH   = 79027
BSTAR          = .44844627E-3
MEAN_MOTION_DOT = .14528E-3
MEAN_MOTION_DDOT = 0

CCSDS_OMM_VERS = 2.0
CREATION_DATE  = 
ORIGINATOR     = 

OBJECT_NAME    = SL-8 R/B
OBJECT_ID      = 1991-006B
CENTER_NAME    = EARTH
REF_FRAME      = TEME
TIME_SYSTEM    = UTC
MEAN_ELEMENT_THEORY = SGP/SGP4

EPOCH          = 2025-11-01T15:51:29.085984
MEAN_MOTION    = 13.77480727
ECCENTRICITY   = .00234346
INCLINATION    = 82.9398
RA_OF_ASC_NODE = 265.2713
ARG_OF_PERICENTER = 36.7667
MEAN_ANOMALY   = 135.9463

EPHEMERIS_TYPE = 0
CLASSIFICATION_TYPE = U
NORAD_CAT_ID   = 21088
ELEMENT_SET_NO = 999
REV_AT_EPOCH   = 74644
BSTAR          = .13891291E-3
MEAN_MOTION_DOT = .154E-5
MEAN_MOTION_DDOT = 0

